{
  "norad_id": 58638,
  "name": "STARLINK-31078",
  "history": [
    {
      "epoch": "2026-03-28T22:37:39.508896Z",
      "apogee_km": 484.0215576270575,
      "perigee_km": 481.95032183401236,
      "latitude_deg": 1.61539063495078e-05,
      "longitude_deg": 152.78747667349535,
      "height_km": 482.72583153151453,
      "semi_major_axis_km": 6861.122939730535,
      "eccentricity": 0.00015094,
      "inclination_deg": 43.0014,
      "raan_deg": 318.5581,
      "arg_perigee_deg": 272.0506,
      "mean_anomaly_deg": 88.0173,
      "mean_motion_rev_day": 15.27601092
    },
    {
      "epoch": "2026-03-29T00:11:48.703776Z",
      "apogee_km": 483.8605276065691,
      "perigee_km": 482.11780156076475,
      "latitude_deg": -1.3668861898894248e-05,
      "longitude_deg": 128.81578724507236,
      "height_km": 482.7355623825999,
      "semi_major_axis_km": 6861.126164583667,
      "eccentricity": 0.000127,
      "inclination_deg": 43.0028,
      "raan_deg": 318.1892,
      "arg_perigee_deg": 272.0066,
      "mean_anomaly_deg": 88.064,
      "mean_motion_rev_day": 15.27600015
    },
    {
      "epoch": "2026-03-29T22:10:01.732224Z",
      "apogee_km": 483.9350707763024,
      "perigee_km": 482.19781406468246,
      "latitude_deg": -3.648352097172866e-05,
      "longitude_deg": 153.1879906099199,
      "height_km": 482.5762046262418,
      "semi_major_axis_km": 6861.203442420492,
      "eccentricity": 0.0001266,
      "inclination_deg": 43.0023,
      "raan_deg": 313.018,
      "arg_perigee_deg": 287.9066,
      "mean_anomaly_deg": 72.1647,
      "mean_motion_rev_day": 15.27574207
    }
  ]
}